{
  "type": "FeatureCollection",
  "features": [
    {
      "type": "Feature",
      "properties": {
        "norad_id": 56564,
        "name": "BEIDOU-3 G4 (C62)",
        "group": "beidou",
        "lat": -0.8252649320623902,
        "lon": -149.4058394154369,
        "alt_km": 35777.20161267059,
        "timestamp": "2025-12-16T21:38:57.439990+00:00",
        "meta_object_name": "BEIDOU-3 G4 (C62)",
        "meta_object_id": "2023-066A",
        "meta_epoch": "2025-12-16T07:44:38.706144",
        "meta_mean_motion": 1.00271767,
        "meta_eccentricity": 0.00027932,
        "meta_inclination": 0.8071,
        "meta_ra_of_asc_node": 302.3401,
        "meta_arg_of_pericenter": 228.4152,
        "meta_mean_anomaly": 190.6839,
        "meta_ephemeris_type": 0,
        "meta_classification_type": "U",
        "meta_norad_cat_id": 56564,
        "meta_element_set_no": 999,
        "meta_rev_at_epoch": 956,
        "meta_bstar": 0,
        "meta_mean_motion_dot": -8.7e-07,
        "meta_mean_motion_ddot": 0,
        "tle_line1": "1 56564U 23066A   25350.32267021 -.00000087  00000+0  00000+0 0  9995",
        "tle_line2": "2 56564   0.8071 302.3401 0002793 228.4152 190.6839  1.00271767  9569"
      },
      "geometry": {
        "type": "Point",
        "coordinates": [
          -149.4058394154369,
          -0.8252649320623902
        ]
      }
    },
    {
      "type": "Feature",
      "properties": {
        "norad_id": 58654,
        "name": "BEIDOU-3 M28 (C50)",
        "group": "beidou",
        "lat": 49.496564225368836,
        "lon": -164.78087609752674,
        "alt_km": 21528.847185961156,
        "timestamp": "2025-12-16T21:38:57.440001+00:00",
        "meta_object_name": "BEIDOU-3 M28 (C50)",
        "meta_object_id": "2023-207A",
        "meta_epoch": "2025-12-15T15:50:05.112096",
        "meta_mean_motion": 1.8622982,
        "meta_eccentricity": 0.00025263,
        "meta_inclination": 55.587,
        "meta_ra_of_asc_node": 68.5025,
        "meta_arg_of_pericenter": 270.8998,
        "meta_mean_anomaly": 89.0909,
        "meta_ephemeris_type": 0,
        "meta_classification_type": "U",
        "meta_norad_cat_id": 58654,
        "meta_element_set_no": 999,
        "meta_rev_at_epoch": 1342,
        "meta_bstar": 0,
        "meta_mean_motion_dot": -8.4e-07,
        "meta_mean_motion_ddot": 0,
        "tle_line1": "1 58654U 23207A   25349.65978139 -.00000084  00000+0  00000+0 0  9994",
        "tle_line2": "2 58654  55.5870  68.5025 0002526 270.8998  89.0909  1.86229820 13427"
      },
      "geometry": {
        "type": "Point",
        "coordinates": [
          -164.78087609752674,
          49.496564225368836
        ]
      }
    },
    {
      "type": "Feature",
      "properties": {
        "norad_id": 58655,
        "name": "BEIDOU-3 M26 (C48)",
        "group": "beidou",
        "lat": -50.182032849761164,
        "lon": -56.368113559676225,
        "alt_km": 21522.848046319734,
        "timestamp": "2025-12-16T21:38:57.440012+00:00",
        "meta_object_name": "BEIDOU-3 M26 (C48)",
        "meta_object_id": "2023-207B",
        "meta_epoch": "2025-12-14T09:12:13.791744",
        "meta_mean_motion": 1.86231292,
        "meta_eccentricity": 0.00038911,
        "meta_inclination": 55.5879,
        "meta_ra_of_asc_node": 68.532,
        "meta_arg_of_pericenter": 256.6064,
        "meta_mean_anomaly": 103.3685,
        "meta_ephemeris_type": 0,
        "meta_classification_type": "U",
        "meta_norad_cat_id": 58655,
        "meta_element_set_no": 999,
        "meta_rev_at_epoch": 1338,
        "meta_bstar": 0,
        "meta_mean_motion_dot": -8.4e-07,
        "meta_mean_motion_ddot": 0,
        "tle_line1": "1 58655U 23207B   25348.38349296 -.00000084  00000+0  00000+0 0  9990",
        "tle_line2": "2 58655  55.5879  68.5320 0003891 256.6064 103.3685  1.86231292 13389"
      },
      "geometry": {
        "type": "Point",
        "coordinates": [
          -56.368113559676225,
          -50.182032849761164
        ]
      }
    },
    {
      "type": "Feature",
      "properties": {
        "norad_id": 61186,
        "name": "BEIDOU-3 M25 (C47)",
        "group": "beidou",
        "lat": 4.487840275549191,
        "lon": -48.25407312313024,
        "alt_km": 21521.828760917022,
        "timestamp": "2025-12-16T21:38:57.440023+00:00",
        "meta_object_name": "BEIDOU-3 M25 (C47)",
        "meta_object_id": "2024-168B",
        "meta_epoch": "2025-12-16T08:41:42.146304",
        "meta_mean_motion": 1.86230282,
        "meta_eccentricity": 0.00054361,
        "meta_inclination": 54.6387,
        "meta_ra_of_asc_node": 308.5944,
        "meta_arg_of_pericenter": 298.6165,
        "meta_mean_anomaly": 64.9369,
        "meta_ephemeris_type": 0,
        "meta_classification_type": "U",
        "meta_norad_cat_id": 61186,
        "meta_element_set_no": 999,
        "meta_rev_at_epoch": 838,
        "meta_bstar": 0,
        "meta_mean_motion_dot": -9.6e-07,
        "meta_mean_motion_ddot": 0,
        "tle_line1": "1 61186U 24168B   25350.36229336 -.00000096  00000+0  00000+0 0  9996",
        "tle_line2": "2 61186  54.6387 308.5944 0005436 298.6165  64.9369  1.86230282  8383"
      },
      "geometry": {
        "type": "Point",
        "coordinates": [
          -48.25407312313024,
          4.487840275549191
        ]
      }
    },
    {
      "type": "Feature",
      "properties": {
        "norad_id": 61187,
        "name": "BEIDOU-3 M27 (C49)",
        "group": "beidou",
        "lat": 31.285732503533428,
        "lon": 102.98775509667723,
        "alt_km": 21530.852476610333,
        "timestamp": "2025-12-16T21:38:57.440034+00:00",
        "meta_object_name": "BEIDOU-3 M27 (C49)",
        "meta_object_id": "2024-168C",
        "meta_epoch": "2025-12-16T03:54:25.551072",
        "meta_mean_motion": 1.86230425,
        "meta_eccentricity": 0.00024772,
        "meta_inclination": 54.6343,
        "meta_ra_of_asc_node": 308.5849,
        "meta_arg_of_pericenter": 338.6924,
        "meta_mean_anomaly": 26.0527,
        "meta_ephemeris_type": 0,
        "meta_classification_type": "U",
        "meta_norad_cat_id": 61187,
        "meta_element_set_no": 999,
        "meta_rev_at_epoch": 585,
        "meta_bstar": 0,
        "meta_mean_motion_dot": -9.7e-07,
        "meta_mean_motion_ddot": 0,
        "tle_line1": "1 61187U 24168C   25350.16279573 -.00000097  00000+0  00000+0 0  9994",
        "tle_line2": "2 61187  54.6343 308.5849 0002477 338.6924  26.0527  1.86230425  5853"
      },
      "geometry": {
        "type": "Point",
        "coordinates": [
          102.98775509667723,
          31.285732503533428
        ]
      }
    }
  ]
}